ONEWEB-0291             
1 49081U 21075G   25348.18277159  .00000025  00000+0  29942-4 0  9995
2 49081  87.9123  42.6366 0001410 106.3028 253.8258 13.17648071209245
ONEWEB-0293             
1 49082U 21075H   25348.20808223  .00000056  00000+0  11232-3 0  9997
2 49082  87.9110  42.6519 0001625  96.8010 263.3306 13.17647367209274
ONEWEB-0294             
1 49083U 21075J   25348.14960803 -.00001143  00000+0 -32194-2 0  9993
2 49083  87.8942  27.4125 0001352  84.6178 275.5104 13.12311383210306
ONEWEB-0295             
1 49084U 21075K   25348.20723904  .00000074  00000+0  15789-3 0  9992
2 49084  87.9110  42.6566 0001508 108.5607 251.5688 13.17648894209235
ONEWEB-0296             
1 49085U 21075L   25348.35864477 -.00000077  00000+0 -24889-3 0  9996
2 49085  87.8938  27.3746 0001295 101.7832 258.3442 13.12420724210332
ONEWEB-0297             
1 49086U 21075M   25348.16069223  .00000874  00000+0  23941-2 0  9992
2 49086  87.8930  27.4458 0001635 100.0241 260.1072 13.12456910210910
ONEWEB-0298             
1 49087U 21075N   25348.21159623  .00000024  00000+0  28008-4 0  9991
2 49087  87.9109  42.6525 0001838 100.1167 260.0172 13.17647625209263
ONEWEB-0299             
1 49088U 21075P   25348.21314556 -.00000040  00000+0 -13528-3 0  9990
2 49088  87.9121  42.6137 0001665 105.3955 254.7361 13.17647494209249
